{
  "norad_id": 47831,
  "name": "STARLINK-2420",
  "history": [
    {
      "epoch": "2026-03-28T13:54:47.941056Z",
      "apogee_km": 548.050340435444,
      "perigee_km": 546.3536323837725,
      "latitude_deg": 1.1654439154608031e-05,
      "longitude_deg": 117.12151889134256,
      "height_km": 548.1514158620038,
      "semi_major_axis_km": 6925.338986409608,
      "eccentricity": 0.0001225,
      "inclination_deg": 53.0557,
      "raan_deg": 151.8194,
      "arg_perigee_deg": 94.8482,
      "mean_anomaly_deg": 265.2647,
      "mean_motion_rev_day": 15.06403123
    },
    {
      "epoch": "2026-03-30T04:07:44.353632Z",
      "apogee_km": 548.3629269845405,
      "perigee_km": 546.073404566735,
      "latitude_deg": 2.027024133190029e-06,
      "longitude_deg": -104.83220197098565,
      "height_km": 548.1710798637591,
      "semi_major_axis_km": 6925.355165775638,
      "eccentricity": 0.0001653,
      "inclination_deg": 53.0549,
      "raan_deg": 144.6702,
      "arg_perigee_deg": 93.8,
      "mean_anomaly_deg": 266.3178,
      "mean_motion_rev_day": 15.06397844
    },
    {
      "epoch": "2026-03-30T13:40:58.779264Z",
      "apogee_km": 548.0967380707798,
      "perigee_km": 546.3655345440666,
      "latitude_deg": -1.2543243752735964e-05,
      "longitude_deg": 109.67811166146656,
      "height_km": 548.0932949823183,
      "semi_major_axis_km": 6925.368136307423,
      "eccentricity": 0.00012499,
      "inclination_deg": 53.0553,
      "raan_deg": 142.883,
      "arg_perigee_deg": 88.9746,
      "mean_anomaly_deg": 271.1386,
      "mean_motion_rev_day": 15.06393612
    },
    {
      "epoch": "2026-03-30T20:03:08.229024Z",
      "apogee_km": 548.0943433207576,
      "perigee_km": 546.362032472658,
      "latitude_deg": 6.260480473672212e-05,
      "longitude_deg": 12.686816663241684,
      "height_km": 548.1280531249885,
      "semi_major_axis_km": 6925.3651878967075,
      "eccentricity": 0.00012507,
      "inclination_deg": 53.0544,
      "raan_deg": 141.6926,
      "arg_perigee_deg": 91.4769,
      "mean_anomaly_deg": 268.6364,
      "mean_motion_rev_day": 15.06394574
    },
    {
      "epoch": "2026-03-31T13:34:04.062720Z",
      "apogee_km": 548.0424710095467,
      "perigee_km": 546.3596138652338,
      "latitude_deg": -9.510893886377343e-06,
      "longitude_deg": 105.95758689964971,
      "height_km": 548.1059050842554,
      "semi_major_axis_km": 6925.33804243739,
      "eccentricity": 0.0001215,
      "inclination_deg": 53.055,
      "raan_deg": 138.4154,
      "arg_perigee_deg": 91.8521,
      "mean_anomaly_deg": 268.2607,
      "mean_motion_rev_day": 15.06403431
    },
    {
      "epoch": "2026-04-01T19:49:20.035776Z",
      "apogee_km": 548.1386246623179,
      "perigee_km": 546.3338723937522,
      "latitude_deg": -1.8182221360985602e-05,
      "longitude_deg": 5.239722067057213,
      "height_km": 548.1334718039183,
      "semi_major_axis_km": 6925.373248528035,
      "eccentricity": 0.0001303,
      "inclination_deg": 53.0545,
      "raan_deg": 132.7566,
      "arg_perigee_deg": 91.253,
      "mean_anomaly_deg": 268.8608,
      "mean_motion_rev_day": 15.06391944
    },
    {
      "epoch": "2026-04-02T11:44:43.423008Z",
      "apogee_km": 548.0931788224034,
      "perigee_km": 546.3346937126671,
      "latitude_deg": -2.4596825103961632e-05,
      "longitude_deg": 122.7597299530687,
      "height_km": 548.129524478509,
      "semi_major_axis_km": 6925.350936267535,
      "eccentricity": 0.00012696,
      "inclination_deg": 53.0545,
      "raan_deg": 129.778,
      "arg_perigee_deg": 92.4801,
      "mean_anomaly_deg": 267.6333,
      "mean_motion_rev_day": 15.06399224
    },
    {
      "epoch": "2026-04-03T08:26:44.256768Z",
      "apogee_km": 548.083519729882,
      "perigee_km": 546.3297457083327,
      "latitude_deg": -1.5095499102491837e-06,
      "longitude_deg": 167.53464524727275,
      "height_km": 548.0996599123085,
      "semi_major_axis_km": 6925.343632719107,
      "eccentricity": 0.00012662,
      "inclination_deg": 53.054,
      "raan_deg": 125.9065,
      "arg_perigee_deg": 91.0153,
      "mean_anomaly_deg": 269.0981,
      "mean_motion_rev_day": 15.06401607
    }
  ]
}